start=new Date('2023-04-11T00:00:00.000Z').valueOf();
sats=[{"LAUNCH_DATE":"2020-01-07","EPHEMERIS_TYPE":"0","RA_OF_ASC_NODE":"58.6258","NORAD_CAT_ID":"44947","REF_FRAME":"TEME","GP_ID":"229875261","SEMIMAJOR_AXIS":"6784.064","RCS_SIZE":"LARGE","SITE":"AFETR","OBJECT_TYPE":"PAYLOAD","FILE":"3885363","INCLINATION":"53.0555","PERIOD":"92.682","COUNTRY_CODE":"US","TLE_LINE1":"1 44947U 20001AK  23101.00002315  .01351153  00000-0  18673-1 0  9994","ECCENTRICITY":"0.00011340","ARG_OF_PERICENTER":"102.9805","MEAN_MOTION_DOT":"0.01351153","OBJECT_NAME":"STARLINK-1116","REV_AT_EPOCH":"130","DECAY_DATE":null,"OBJECT_ID":"2020-001AK","MEAN_MOTION":"15.53702408","ELEMENT_SET_NO":"999","EPOCH":"2023-04-11T00:00:02.000160","CLASSIFICATION_TYPE":"U","MEAN_ANOMALY":"72.8727","PERIAPSIS":"405.160","APOAPSIS":"406.699","BSTAR":"0.01867300000000","MEAN_ELEMENT_THEORY":"SGP4","CENTER_NAME":"EARTH","MEAN_MOTION_DDOT":"0.0000000000000","TIME_SYSTEM":"UTC","TLE_LINE2":"2 44947  53.0555  58.6258 0001134 102.9805  72.8727 15.53702408  1303"},{"BSTAR":"0.00042779000000","APOAPSIS":"548.037","MEAN_ANOMALY":"277.2334","PERIAPSIS":"546.383","MEAN_ELEMENT_THEORY":"SGP4","TIME_SYSTEM":"UTC","MEAN_MOTION_DDOT":"0.0000000000000","CENTER_NAME":"EARTH","TLE_LINE2":"2 44949  53.0541  62.2167 0001194  82.8791 277.2334 15.06401228179783","MEAN_MOTION_DOT":"0.00006096","OBJECT_ID":"2020-001AM","DECAY_DATE":null,"REV_AT_EPOCH":"17978","OBJECT_NAME":"STARLINK-1122","ELEMENT_SET_NO":"999","MEAN_MOTION":"15.06401228","CLASSIFICATION_TYPE":"U","EPOCH":"2023-04-10T21:15:28.452672","FILE":"3885363","PERIOD":"95.592","INCLINATION":"53.0541","ARG_OF_PERICENTER":"82.8791","ECCENTRICITY":"0.00011940","TLE_LINE1":"1 44949U 20001AM  23100.88574598  .00006096  00000-0  42779-3 0  9996","COUNTRY_CODE":"US","LAUNCH_DATE":"2020-01-07","EPHEMERIS_TYPE":"0","RA_OF_ASC_NODE":"62.2167","NORAD_CAT_ID":"44949","REF_FRAME":"TEME","SITE":"AFETR","OBJECT_TYPE":"PAYLOAD","RCS_SIZE":"LARGE","SEMIMAJOR_AXIS":"6925.345","GP_ID":"229875508"},{"CENTER_NAME":"EARTH","MEAN_MOTION_DDOT":"0.0000000000000","TIME_SYSTEM":"UTC","TLE_LINE2":"2 44950  53.0557  40.0827 0007756 107.6034 252.5817 15.38086216180049","MEAN_ANOMALY":"252.5817","PERIAPSIS":"446.474","BSTAR":"0.00382960000000","APOAPSIS":"457.068","MEAN_ELEMENT_THEORY":"SGP4","ELEMENT_SET_NO":"999","MEAN_MOTION":"15.38086216","EPOCH":"2023-04-10T06:26:47.675040","CLASSIFICATION_TYPE":"U","MEAN_MOTION_DOT":"0.00148287","REV_AT_EPOCH":"18004","OBJECT_NAME":"STARLINK-1125","OBJECT_ID":"2020-001AN","DECAY_DATE":null,"INCLINATION":"53.0557","PERIOD":"93.623","COUNTRY_CODE":"US","ARG_OF_PERICENTER":"107.6034","ECCENTRICITY":"0.00077560","TLE_LINE1":"1 44950U 20001AN  23100.26860735  .00148287  00000-0  38296-2 0  9998","FILE":"3885195","REF_FRAME":"TEME","NORAD_CAT_ID":"44950","GP_ID":"229846297","SITE":"AFETR","OBJECT_TYPE":"PAYLOAD","RCS_SIZE":"LARGE","SEMIMAJOR_AXIS":"6829.906","LAUNCH_DATE":"2020-01-07","RA_OF_ASC_NODE":"40.0827","EPHEMERIS_TYPE":"0"},{"CLASSIFICATION_TYPE":"U","EPOCH":"2023-04-10T02:32:06.601344","MEAN_MOTION":"15.36231536","ELEMENT_SET_NO":"999","DECAY_DATE":null,"OBJECT_ID":"2020-001AP","OBJECT_NAME":"STARLINK-1126","REV_AT_EPOCH":"18151","MEAN_MOTION_DOT":"0.00116942","TLE_LINE2":"2 44951  53.0213  22.7000 0007038 129.0011 231.1618 15.36231536181515","MEAN_MOTION_DDOT":"0.0000000000000","TIME_SYSTEM":"UTC","CENTER_NAME":"EARTH","MEAN_ELEMENT_THEORY":"SGP4","APOAPSIS":"462.078","BSTAR":"0.00322240000000","MEAN_ANOMALY":"231.1618","PERIAPSIS":"452.456","RCS_SIZE":"LARGE","SEMIMAJOR_AXIS":"6835.402","SITE":"AFETR","OBJECT_TYPE":"PAYLOAD","GP_ID":"229846047","REF_FRAME":"TEME","NORAD_CAT_ID":"44951","RA_OF_ASC_NODE":"22.7000","EPHEMERIS_TYPE":"0","LAUNCH_DATE":"2020-01-07","ECCENTRICITY":"0.00070380","TLE_LINE1":"1 44951U 20001AP  23100.10563196  .00116942  00000-0  32224-2 0  9991","ARG_OF_PERICENTER":"129.0011","COUNTRY_CODE":"US","PERIOD":"93.736","INCLINATION":"53.0213","FILE":"3885195"},{"MEAN_MOTION_DDOT":"0.0000000000000","TIME_SYSTEM":"UTC","CENTER_NAME":"EARTH","TLE_LINE2":"2 44952  53.0542  64.9803 0001154 100.6388 259.4731 15.06467346179697","PERIAPSIS":"546.208","MEAN_ANOMALY":"259.4731","BSTAR":"0.00148660000000","APOAPSIS":"547.806","MEAN_ELEMENT_THEORY":"SGP4","ELEMENT_SET_NO":"999","MEAN_MOTION":"15.06467346","EPOCH":"2023-04-10T06:29:03.547680","CLASSIFICATION_TYPE":"U","MEAN_MOTION_DOT":"0.00021971","REV_AT_EPOCH":"17969","OBJECT_NAME":"STARLINK-1117","DECAY_DATE":null,"OBJECT_ID":"2020-001AQ","INCLINATION":"53.0542","PERIOD":"95.588","COUNTRY_CODE":"US","ARG_OF_PERICENTER":"100.6388","TLE_LINE1":"1 44952U 20001AQ  23100.27017995  .00021971  00000-0  14866-2 0  9990","ECCENTRICITY":"0.00011540","FILE":"3885195","REF_FRAME":"TEME","NORAD_CAT_ID":"44952","GP_ID":"229844798","SITE":"AFETR","OBJECT_TYPE":"PAYLOAD","SEMIMAJOR_AXIS":"6925.142","RCS_SIZE":"LARGE","LAUNCH_DATE":"2020-01-07","EPHEMERIS_TYPE":"0","RA_OF_ASC_NODE":"64.9803"},{"MEAN_ELEMENT_THEORY":"SGP4","PERIAPSIS":"545.885","MEAN_ANOMALY":"280.8107","BSTAR":"0.00036627000000","APOAPSIS":"548.488","TLE_LINE2":"2 44953  53.0540  62.2221 0001879  79.3094 280.8107 15.06408905181077","TIME_SYSTEM":"UTC","MEAN_MOTION_DDOT":"0.0000000000000","CENTER_NAME":"EARTH","REV_AT_EPOCH":"18107","OBJECT_NAME":"STARLINK-1124","DECAY_DATE":null,"OBJECT_ID":"2020-001AR","MEAN_MOTION_DOT":"0.00005179","CLASSIFICATION_TYPE":"U","EPOCH":"2023-04-10T21:14:06.859104","ELEMENT_SET_NO":"999","MEAN_MOTION":"15.06408905","FILE":"3885363","COUNTRY_CODE":"US","ARG_OF_PERICENTER":"79.3094","ECCENTRICITY":"0.00018790","TLE_LINE1":"1 44953U 20001AR  23100.88480161  .00005179  00000-0  36627-3 0  9999","INCLINATION":"53.0540","PERIOD":"95.592","EPHEMERIS_TYPE":"0","RA_OF_ASC_NODE":"62.2221","LAUNCH_DATE":"2020-01-07","GP_ID":"229876007","SITE":"AFETR","OBJECT_TYPE":"PAYLOAD","SEMIMAJOR_AXIS":"6925.321","RCS_SIZE":"LARGE","NORAD_CAT_ID":"44953","REF_FRAME":"TEME"},{"LAUNCH_DATE":"2020-01-07","RA_OF_ASC_NODE":"45.1369","EPHEMERIS_TYPE":"0","NORAD_CAT_ID":"44954","REF_FRAME":"TEME","GP_ID":"229845799","OBJECT_TYPE":"PAYLOAD","SITE":"AFETR","SEMIMAJOR_AXIS":"6925.239","RCS_SIZE":"LARGE","FILE":"3885195","INCLINATION":"53.0540","PERIOD":"95.590","COUNTRY_CODE":"US","ARG_OF_PERICENTER":"97.3890","ECCENTRICITY":"0.00010100","TLE_LINE1":"1 44954U 20001AS  23100.23517152  .00028463  00000-0  19202-2 0  9990","MEAN_MOTION_DOT":"0.00028463","REV_AT_EPOCH":"17991","OBJECT_NAME":"STARLINK-1066","DECAY_DATE":null,"OBJECT_ID":"2020-001AS","ELEMENT_SET_NO":"999","MEAN_MOTION":"15.06435824","EPOCH":"2023-04-10T05:38:38.819328","CLASSIFICATION_TYPE":"U","PERIAPSIS":"546.404","MEAN_ANOMALY":"262.7214","BSTAR":"0.00192020000000","APOAPSIS":"547.803","MEAN_ELEMENT_THEORY":"SGP4","MEAN_MOTION_DDOT":"0.0000000000000","TIME_SYSTEM":"UTC","CENTER_NAME":"EARTH","TLE_LINE2":"2 44954  53.0540  45.1369 0001010  97.3890 262.7214 15.06435824179910"},{"CLASSIFICATION_TYPE":"U","EPOCH":"2023-04-10T05:49:16.818528","MEAN_MOTION":"15.06430908","ELEMENT_SET_NO":"999","DECAY_DATE":null,"OBJECT_ID":"2020-001AT","OBJECT_NAME":"STARLINK-1069","REV_AT_EPOCH":"17991","MEAN_MOTION_DOT":"0.00028170","TLE_LINE2":"2 44955  53.0558  45.1058 0001201  99.2071 260.9054 15.06430908179919","MEAN_MOTION_DDOT":"0.0000000000000","TIME_SYSTEM":"UTC","CENTER_NAME":"EARTH","MEAN_ELEMENT_THEORY":"SGP4","APOAPSIS":"547.951","BSTAR":"0.00190090000000","PERIAPSIS":"546.287","MEAN_ANOMALY":"260.9054","RCS_SIZE":"LARGE","SEMIMAJOR_AXIS":"6925.254","SITE":"AFETR","OBJECT_TYPE":"PAYLOAD","GP_ID":"229855704","NORAD_CAT_ID":"44955","REF_FRAME":"TEME","RA_OF_ASC_NODE":"45.1058","EPHEMERIS_TYPE":"0","LAUNCH_DATE":"2020-01-07","ECCENTRICITY":"0.00012010","TLE_LINE1":"1 44955U 20001AT  23100.24255577  .00028170  00000-0  19009-2 0  9992","ARG_OF_PERICENTER":"99.2071","COUNTRY_CODE":"US","PERIOD":"95.590","INCLINATION":"53.0558","FILE":"3885315"},{"RA_OF_ASC_NODE":"45.1199","EPHEMERIS_TYPE":"0","LAUNCH_DATE":"2020-01-07","GP_ID":"229855549","SITE":"AFETR","OBJECT_TYPE":"PAYLOAD","SEMIMAJOR_AXIS":"6925.248","RCS_SIZE":"LARGE","NORAD_CAT_ID":"44956","REF_FRAME":"TEME","FILE":"3885316","COUNTRY_CODE":"US","ARG_OF_PERICENTER":"104.0560","TLE_LINE1":"1 44956U 20001AU  23100.23790875  .00021640  00000-0  14659-2 0  9998","ECCENTRICITY":"0.00013550","INCLINATION":"53.0557","PERIOD":"95.590","REV_AT_EPOCH":"17997","OBJECT_NAME":"STARLINK-1070","DECAY_DATE":null,"OBJECT_ID":"2020-001AU","MEAN_MOTION_DOT":"0.00021640","CLASSIFICATION_TYPE":"U","EPOCH":"2023-04-10T05:42:35.316000","ELEMENT_SET_NO":"999","MEAN_MOTION":"15.06432932","MEAN_ELEMENT_THEORY":"SGP4","MEAN_ANOMALY":"256.0580","PERIAPSIS":"546.174","BSTAR":"0.00146590000000","APOAPSIS":"548.051","TLE_LINE2":"2 44956  53.0557  45.1199 0001355 104.0560 256.0580 15.06432932179978","MEAN_MOTION_DDOT":"0.0000000000000","TIME_SYSTEM":"UTC","CENTER_NAME":"EARTH"},{"EPHEMERIS_TYPE":"0","RA_OF_ASC_NODE":"45.0011","LAUNCH_DATE":"2020-01-07","SITE":"AFETR","OBJECT_TYPE":"PAYLOAD","RCS_SIZE":"LARGE","SEMIMAJOR_AXIS":"6925.199","GP_ID":"229845049","NORAD_CAT_ID":"44957","REF_FRAME":"TEME","FILE":"3885195","ARG_OF_PERICENTER":"96.8131","ECCENTRICITY":"0.00010460","TLE_LINE1":"1 44957U 20001AV  23100.26370937  .00023814  00000-0  16101-2 0  9994","COUNTRY_CODE":"US","PERIOD":"95.589","INCLINATION":"53.0573","OBJECT_ID":"2020-001AV","DECAY_DATE":null,"REV_AT_EPOCH":"17997","OBJECT_NAME":"STARLINK-1074","MEAN_MOTION_DOT":"0.00023814","CLASSIFICATION_TYPE":"U","EPOCH":"2023-04-10T06:19:44.489568","ELEMENT_SET_NO":"999","MEAN_MOTION":"15.06448762","MEAN_ELEMENT_THEORY":"SGP4","BSTAR":"0.00161010000000","APOAPSIS":"547.788","MEAN_ANOMALY":"263.2977","PERIAPSIS":"546.340","TLE_LINE2":"2 44957  53.0573  45.0011 0001046  96.8131 263.2977 15.06448762179976","MEAN_MOTION_DDOT":"0.0000000000000","CENTER_NAME":"EARTH","TIME_SYSTEM":"UTC"}];
